start=new Date('2021-09-23T00:00:00.000Z').valueOf();
sats=[{"OBJECT_ID":"2019-074AY","TLE_LINE2":"2 44759  53.0561 339.9753 0000831 113.1750 246.9326 15.06398759100297","NORAD_CAT_ID":"44759","TIME_SYSTEM":"UTC","MEAN_MOTION_DDOT":"0.0000000000000","OBJECT_TYPE":"PAYLOAD","MEAN_MOTION_DOT":"0.00000962","REV_AT_EPOCH":"10029","CENTER_NAME":"EARTH","OBJECT_NAME":"STARLINK-1054","MEAN_ELEMENT_THEORY":"SGP4","SITE":"AFETR","REF_FRAME":"TEME","TLE_LINE1":"1 44759U 19074AY  21265.58243703  .00000962  00000-0  83442-4 0  9990","INCLINATION":"53.0561","ARG_OF_PERICENTER":"113.1750","PERIOD":"95.592","MEAN_ANOMALY":"246.9326","EPHEMERIS_TYPE":"0","APOAPSIS":"547.793","RCS_SIZE":"LARGE","SEMIMAJOR_AXIS":"6925.352","ELEMENT_SET_NO":"999","ECCENTRICITY":"0.00008310","GP_ID":"185267069","LAUNCH_DATE":"2019-11-11","BSTAR":"0.00008344200000","CLASSIFICATION_TYPE":"U","EPOCH":"2021-09-22T13:58:42.559392","PERIAPSIS":"546.642","COUNTRY_CODE":"US","DECAY_DATE":null,"MEAN_MOTION":"15.06398759","RA_OF_ASC_NODE":"339.9753","FILE":"3123736"},{"OBJECT_ID":"2019-074AZ","NORAD_CAT_ID":"44760","TLE_LINE2":"2 44760  53.0558 339.7482 0000991  98.1075 262.0026 15.06397509102662","MEAN_MOTION_DDOT":"0.0000000000000","TIME_SYSTEM":"UTC","OBJECT_TYPE":"PAYLOAD","MEAN_MOTION_DOT":"0.00000716","REV_AT_EPOCH":"10266","CENTER_NAME":"EARTH","OBJECT_NAME":"STARLINK-1055","MEAN_ELEMENT_THEORY":"SGP4","SITE":"AFETR","REF_FRAME":"TEME","TLE_LINE1":"1 44760U 19074AZ  21265.63404617  .00000716  00000-0  66916-4 0  9995","INCLINATION":"53.0558","ARG_OF_PERICENTER":"98.1075","MEAN_ANOMALY":"262.0026","EPHEMERIS_TYPE":"0","PERIOD":"95.592","APOAPSIS":"547.907","RCS_SIZE":"LARGE","SEMIMAJOR_AXIS":"6925.356","GP_ID":"185267297","ECCENTRICITY":"0.00009910","ELEMENT_SET_NO":"999","BSTAR":"0.00006691600000","CLASSIFICATION_TYPE":"U","LAUNCH_DATE":"2019-11-11","DECAY_DATE":null,"COUNTRY_CODE":"US","MEAN_MOTION":"15.06397509","EPOCH":"2021-09-22T15:13:01.589088","PERIAPSIS":"546.535","FILE":"3123736","RA_OF_ASC_NODE":"339.7482"},{"SEMIMAJOR_AXIS":"6925.355","GP_ID":"185236875","ECCENTRICITY":"0.00008810","ELEMENT_SET_NO":"999","EPHEMERIS_TYPE":"0","MEAN_ANOMALY":"244.4363","PERIOD":"95.592","APOAPSIS":"547.830","RCS_SIZE":"LARGE","RA_OF_ASC_NODE":"340.2868","FILE":"3123417","CLASSIFICATION_TYPE":"U","BSTAR":"-0.00002268900000","LAUNCH_DATE":"2019-11-11","MEAN_MOTION":"15.06397931","DECAY_DATE":null,"COUNTRY_CODE":"US","PERIAPSIS":"546.610","EPOCH":"2021-09-22T12:17:52.964448","MEAN_MOTION_DDOT":"0.0000000000000","TIME_SYSTEM":"UTC","OBJECT_TYPE":"PAYLOAD","OBJECT_ID":"2019-074BA","TLE_LINE2":"2 44761  53.0556 340.2868 0000881 115.6717 244.4363 15.06397931102647","NORAD_CAT_ID":"44761","TLE_LINE1":"1 44761U 19074BA  21265.51241857 -.00000619  00000-0 -22689-4 0  9991","SITE":"AFETR","REF_FRAME":"TEME","ARG_OF_PERICENTER":"115.6717","INCLINATION":"53.0556","CENTER_NAME":"EARTH","MEAN_MOTION_DOT":"-0.00000619","REV_AT_EPOCH":"10264","MEAN_ELEMENT_THEORY":"SGP4","OBJECT_NAME":"STARLINK-1056"},{"OBJECT_ID":"2019-074BB","TLE_LINE2":"2 44762  53.0537 320.5794 0000551 108.8629 251.2419 15.06398924102906","NORAD_CAT_ID":"44762","MEAN_MOTION_DDOT":"0.0000000000000","TIME_SYSTEM":"UTC","OBJECT_TYPE":"PAYLOAD","MEAN_MOTION_DOT":"0.00001142","REV_AT_EPOCH":"10290","CENTER_NAME":"EARTH","OBJECT_NAME":"STARLINK-1057","MEAN_ELEMENT_THEORY":"SGP4","REF_FRAME":"TEME","SITE":"AFETR","TLE_LINE1":"1 44762U 19074BB  21265.44789333  .00001142  00000-0  95519-4 0  9992","INCLINATION":"53.0537","ARG_OF_PERICENTER":"108.8629","MEAN_ANOMALY":"251.2419","EPHEMERIS_TYPE":"0","PERIOD":"95.592","APOAPSIS":"547.598","RCS_SIZE":"LARGE","SEMIMAJOR_AXIS":"6925.352","GP_ID":"185237126","ECCENTRICITY":"0.00005510","ELEMENT_SET_NO":"999","BSTAR":"0.00009551900000","CLASSIFICATION_TYPE":"U","LAUNCH_DATE":"2019-11-11","COUNTRY_CODE":"US","DECAY_DATE":null,"MEAN_MOTION":"15.06398924","EPOCH":"2021-09-22T10:44:57.983712","PERIAPSIS":"546.835","FILE":"3123417","RA_OF_ASC_NODE":"320.5794"},{"INCLINATION":"53.0563","ARG_OF_PERICENTER":"107.5151","REF_FRAME":"TEME","SITE":"AFETR","TLE_LINE1":"1 44763U 19074BC  21265.60088831  .00001226  00000-0  10119-3 0  9991","OBJECT_NAME":"STARLINK-1058","MEAN_ELEMENT_THEORY":"SGP4","MEAN_MOTION_DOT":"0.00001226","REV_AT_EPOCH":"10265","CENTER_NAME":"EARTH","OBJECT_TYPE":"PAYLOAD","TIME_SYSTEM":"UTC","MEAN_MOTION_DDOT":"0.0000000000000","TLE_LINE2":"2 44763  53.0563 339.8895 0000956 107.5151 252.5942 15.06384803102654","NORAD_CAT_ID":"44763","OBJECT_ID":"2019-074BC","RA_OF_ASC_NODE":"339.8895","FILE":"3123736","EPOCH":"2021-09-22T14:25:16.749984","PERIAPSIS":"546.598","DECAY_DATE":null,"COUNTRY_CODE":"US","MEAN_MOTION":"15.06384803","LAUNCH_DATE":"2019-11-11","BSTAR":"0.00010119000000","CLASSIFICATION_TYPE":"U","ELEMENT_SET_NO":"999","ECCENTRICITY":"0.00009560","GP_ID":"185266570","SEMIMAJOR_AXIS":"6925.395","APOAPSIS":"547.922","RCS_SIZE":"LARGE","PERIOD":"95.593","MEAN_ANOMALY":"252.5942","EPHEMERIS_TYPE":"0"},{"LAUNCH_DATE":"2019-11-11","CLASSIFICATION_TYPE":"U","BSTAR":"0.00015417000000","PERIAPSIS":"546.525","EPOCH":"2021-09-22T13:50:44.421792","DECAY_DATE":null,"MEAN_MOTION":"15.06406680","COUNTRY_CODE":"US","FILE":"3123736","RA_OF_ASC_NODE":"319.9980","PERIOD":"95.592","EPHEMERIS_TYPE":"0","MEAN_ANOMALY":"255.1812","RCS_SIZE":"LARGE","APOAPSIS":"547.861","SEMIMAJOR_AXIS":"6925.328","ELEMENT_SET_NO":"999","GP_ID":"185266798","ECCENTRICITY":"0.00009650","CENTER_NAME":"EARTH","MEAN_MOTION_DOT":"0.00002016","REV_AT_EPOCH":"10292","MEAN_ELEMENT_THEORY":"SGP4","OBJECT_NAME":"STARLINK-1059","TLE_LINE1":"1 44764U 19074BD  21265.57690303  .00002016  00000-0  15417-3 0  9995","REF_FRAME":"TEME","SITE":"AFETR","ARG_OF_PERICENTER":"104.9284","INCLINATION":"53.0554","OBJECT_ID":"2019-074BD","NORAD_CAT_ID":"44764","TLE_LINE2":"2 44764  53.0554 319.9980 0000965 104.9284 255.1812 15.06406680102920","TIME_SYSTEM":"UTC","MEAN_MOTION_DDOT":"0.0000000000000","OBJECT_TYPE":"PAYLOAD"},{"TLE_LINE2":"2 44765  53.0548 320.2061 0000728 106.9367 253.1702 15.06400597102916","NORAD_CAT_ID":"44765","OBJECT_ID":"2019-074BE","OBJECT_TYPE":"PAYLOAD","MEAN_MOTION_DDOT":"0.0000000000000","TIME_SYSTEM":"UTC","MEAN_ELEMENT_THEORY":"SGP4","OBJECT_NAME":"STARLINK-1060","CENTER_NAME":"EARTH","MEAN_MOTION_DOT":"-0.00000601","REV_AT_EPOCH":"10291","ARG_OF_PERICENTER":"106.9367","INCLINATION":"53.0548","TLE_LINE1":"1 44765U 19074BE  21265.52900230 -.00000601  00000-0 -21485-4 0  9997","SITE":"AFETR","REF_FRAME":"TEME","RCS_SIZE":"LARGE","APOAPSIS":"547.716","EPHEMERIS_TYPE":"0","MEAN_ANOMALY":"253.1702","PERIOD":"95.592","GP_ID":"185266069","ECCENTRICITY":"0.00007280","ELEMENT_SET_NO":"999","SEMIMAJOR_AXIS":"6925.347","MEAN_MOTION":"15.06400597","DECAY_DATE":null,"COUNTRY_CODE":"US","PERIAPSIS":"546.708","EPOCH":"2021-09-22T12:41:45.798720","CLASSIFICATION_TYPE":"U","BSTAR":"-0.00002148500000","LAUNCH_DATE":"2019-11-11","RA_OF_ASC_NODE":"320.2061","FILE":"3123736"},{"OBJECT_NAME":"STARLINK-1061","MEAN_ELEMENT_THEORY":"SGP4","MEAN_MOTION_DOT":"0.00000923","REV_AT_EPOCH":"10265","CENTER_NAME":"EARTH","INCLINATION":"53.0548","ARG_OF_PERICENTER":"106.6432","SITE":"AFETR","REF_FRAME":"TEME","TLE_LINE1":"1 44766U 19074BF  21265.59350550  .00000923  00000-0  80836-4 0  9999","TLE_LINE2":"2 44766  53.0548 339.9155 0000661 106.6432 253.4629 15.06390847102652","NORAD_CAT_ID":"44766","OBJECT_ID":"2019-074BF","OBJECT_TYPE":"PAYLOAD","MEAN_MOTION_DDOT":"0.0000000000000","TIME_SYSTEM":"UTC","MEAN_MOTION":"15.06390847","DECAY_DATE":null,"COUNTRY_CODE":"US","EPOCH":"2021-09-22T14:14:38.875200","PERIAPSIS":"546.784","BSTAR":"0.00008083600000","CLASSIFICATION_TYPE":"U","LAUNCH_DATE":"2019-11-11","RA_OF_ASC_NODE":"339.9155","FILE":"3123736","RCS_SIZE":"LARGE","APOAPSIS":"547.699","MEAN_ANOMALY":"253.4629","EPHEMERIS_TYPE":"0","PERIOD":"95.593","ECCENTRICITY":"0.00006610","GP_ID":"185265819","ELEMENT_SET_NO":"999","SEMIMAJOR_AXIS":"6925.377"},{"MEAN_ANOMALY":"239.2892","EPHEMERIS_TYPE":"0","PERIOD":"95.593","APOAPSIS":"548.115","RCS_SIZE":"LARGE","SEMIMAJOR_AXIS":"6925.411","GP_ID":"185267070","ECCENTRICITY":"0.00012110","ELEMENT_SET_NO":"999","BSTAR":"0.00008433700000","CLASSIFICATION_TYPE":"U","LAUNCH_DATE":"2019-11-11","DECAY_DATE":null,"MEAN_MOTION":"15.06379656","COUNTRY_CODE":"US","EPOCH":"2021-09-22T14:04:03.305568","PERIAPSIS":"546.437","FILE":"3123736","RA_OF_ASC_NODE":"339.9518","OBJECT_ID":"2019-074BG","NORAD_CAT_ID":"44767","TLE_LINE2":"2 44767  53.0551 339.9518 0001211 120.8216 239.2892 15.06379656102659","MEAN_MOTION_DDOT":"0.0000000000000","TIME_SYSTEM":"UTC","OBJECT_TYPE":"PAYLOAD","REV_AT_EPOCH":"10265","MEAN_MOTION_DOT":"0.00000974","CENTER_NAME":"EARTH","OBJECT_NAME":"STARLINK-1062","MEAN_ELEMENT_THEORY":"SGP4","SITE":"AFETR","REF_FRAME":"TEME","TLE_LINE1":"1 44767U 19074BG  21265.58614937  .00000974  00000-0  84337-4 0  9997","INCLINATION":"53.0551","ARG_OF_PERICENTER":"120.8216"},{"PERIOD":"95.593","MEAN_ANOMALY":"259.4395","EPHEMERIS_TYPE":"0","APOAPSIS":"548.006","RCS_SIZE":"LARGE","SEMIMAJOR_AXIS":"6925.376","ELEMENT_SET_NO":"999","ECCENTRICITY":"0.00011050","GP_ID":"185236624","LAUNCH_DATE":"2019-11-11","BSTAR":"0.00008785400000","CLASSIFICATION_TYPE":"U","EPOCH":"2021-09-22T11:24:47.874240","PERIAPSIS":"546.476","COUNTRY_CODE":"US","DECAY_DATE":null,"MEAN_MOTION":"15.06391049","FILE":"3123417","RA_OF_ASC_NODE":"340.4562","OBJECT_ID":"2019-074BH","NORAD_CAT_ID":"44768","TLE_LINE2":"2 44768  53.0547 340.4562 0001105 100.6718 259.4395 15.06391049102647","TIME_SYSTEM":"UTC","MEAN_MOTION_DDOT":"0.0000000000000","OBJECT_TYPE":"PAYLOAD","REV_AT_EPOCH":"10264","MEAN_MOTION_DOT":"0.00001027","CENTER_NAME":"EARTH","OBJECT_NAME":"STARLINK-1063","MEAN_ELEMENT_THEORY":"SGP4","SITE":"AFETR","REF_FRAME":"TEME","TLE_LINE1":"1 44768U 19074BH  21265.47555410  .00001027  00000-0  87854-4 0  9993","INCLINATION":"53.0547","ARG_OF_PERICENTER":"100.6718"}];
